{"type": "FeatureCollection", "features": [ {"type": "Feature", "properties": {"norad_id": 32289, "name": "YAOGAN-3", "group": "resource", "lat": -63.3141303310395, "lon": 27.33472308343384, "alt_km": 606.3126624519382, "timestamp": "2025-12-10T18:56:59.718505+00:00", "meta": {"OBJECT_NAME": "YAOGAN-3", "OBJECT_ID": "2007-055A", "EPOCH": "2025-12-10T12:47:27.681792", "MEAN_MOTION": 14.89840704, "ECCENTRICITY": 0.0001359, "INCLINATION": 97.8365, "RA_OF_ASC_NODE": 11.1777, "ARG_OF_PERICENTER": 72.1349, "MEAN_ANOMALY": 288.0017, "EPHEMERIS_TYPE": 0, "CLASSIFICATION_TYPE": "U", "NORAD_CAT_ID": 32289, "ELEMENT_SET_NO": 999, "REV_AT_EPOCH": 97776, "BSTAR": 0.00043299, "MEAN_MOTION_DOT": 4.104e-05, "MEAN_MOTION_DDOT": 0}, "tle": {"line1": "1 32289U 07055A   25344.53295928  .00004104  00000+0  43299-3 0  9990", "line2": "2 32289  97.8365  11.1777 0001359  72.1349 288.0017 14.89840704977769"}}, "geometry": {"type": "Point", "coordinates": [27.33472308343384, -63.3141303310395]}}, {"type": "Feature", "properties": {"norad_id": 32376, "name": "COSMO-SKYMED 2", "group": "resource", "lat": -81.99286942456115, "lon": -93.8333548210776, "alt_km": 630.9306319952248, "timestamp": "2025-12-10T18:56:59.718516+00:00", "meta": {"OBJECT_NAME": "COSMO-SKYMED 2", "OBJECT_ID": "2007-059A", "EPOCH": "2025-12-10T12:52:51.202272", "MEAN_MOTION": 14.82162097, "ECCENTRICITY": 0.0001528, "INCLINATION": 97.8812, "RA_OF_ASC_NODE": 165.8936, "ARG_OF_PERICENTER": 85.2347, "MEAN_ANOMALY": 274.904, "EPHEMERIS_TYPE": 0, "CLASSIFICATION_TYPE": "U", "NORAD_CAT_ID": 32376, "ELEMENT_SET_NO": 999, "REV_AT_EPOCH": 97405, "BSTAR": 0.00012461, "MEAN_MOTION_DOT": 9.4e-06, "MEAN_MOTION_DDOT": 0}, "tle": {"line1": "1 32376U 07059A   25344.53670373  .00000940  00000+0  12461-3 0  9993", "line2": "2 32376  97.8812 165.8936 0001528  85.2347 274.9040 14.82162097974052"}}, "geometry": {"type": "Point", "coordinates": [-93.8333548210776, -81.99286942456115]}}, {"type": "Feature", "properties": {"norad_id": 32382, "name": "RADARSAT-2", "group": "resource", "lat": -42.749001132489575, "lon": 161.3857781075913, "alt_km": 798.9865900661598, "timestamp": "2025-12-10T18:56:59.718527+00:00", "meta": {"OBJECT_NAME": "RADARSAT-2", "OBJECT_ID": "2007-061A", "EPOCH": "2025-12-10T11:11:30.903360", "MEAN_MOTION": 14.29981365, "ECCENTRICITY": 0.0001125, "INCLINATION": 98.5796, "RA_OF_ASC_NODE": 349.089, "ARG_OF_PERICENTER": 86.7362, "MEAN_ANOMALY": 273.3949, "EPHEMERIS_TYPE": 0, "CLASSIFICATION_TYPE": "U", "NORAD_CAT_ID": 32382, "ELEMENT_SET_NO": 999, "REV_AT_EPOCH": 93898, "BSTAR": 7.8926e-05, "MEAN_MOTION_DOT": 1.6e-06, "MEAN_MOTION_DDOT": 0}, "tle": {"line1": "1 32382U 07061A   25344.46632990  .00000160  00000+0  78926-4 0  9991", "line2": "2 32382  98.5796 349.0890 0001125  86.7362 273.3949 14.29981365938980"}}, "geometry": {"type": "Point", "coordinates": [161.3857781075913, -42.749001132489575]}}, {"type": "Feature", "properties": {"norad_id": 32783, "name": "CARTOSAT-2A", "group": "resource", "lat": 69.54734261900711, "lon": 13.130243529238003, "alt_km": 621.745762335172, "timestamp": "2025-12-10T18:56:59.718537+00:00", "meta": {"OBJECT_NAME": "CARTOSAT-2A", "OBJECT_ID": "2008-021A", "EPOCH": "2025-12-10T12:08:07.608768", "MEAN_MOTION": 14.78931113, "ECCENTRICITY": 0.0012112, "INCLINATION": 97.7928, "RA_OF_ASC_NODE": 34.3986, "ARG_OF_PERICENTER": 11.6582, "MEAN_ANOMALY": 348.4908, "EPHEMERIS_TYPE": 0, "CLASSIFICATION_TYPE": "U", "NORAD_CAT_ID": 32783, "ELEMENT_SET_NO": 999, "REV_AT_EPOCH": 95091, "BSTAR": 0.00022454, "MEAN_MOTION_DOT": 1.607e-05, "MEAN_MOTION_DDOT": 0}, "tle": {"line1": "1 32783U 08021A   25344.50564362  .00001607  00000+0  22454-3 0  9996", "line2": "2 32783  97.7928  34.3986 0012112  11.6582 348.4908 14.78931113950918"}}, "geometry": {"type": "Point", "coordinates": [13.130243529238003, 69.54734261900711]}}, {"type": "Feature", "properties": {"norad_id": 33320, "name": "HUANJING 1A (HJ-1A)", "group": "resource", "lat": -80.84167505531563, "lon": 96.63841207693633, "alt_km": 636.1851659215663, "timestamp": "2025-12-10T18:56:59.718548+00:00", "meta": {"OBJECT_NAME": "HUANJING 1A (HJ-1A)", "OBJECT_ID": "2008-041A", "EPOCH": "2025-12-10T12:54:07.853760", "MEAN_MOTION": 14.83382865, "ECCENTRICITY": 0.0020336, "INCLINATION": 97.6544, "RA_OF_ASC_NODE": 332.9279, "ARG_OF_PERICENTER": 41.4254, "MEAN_ANOMALY": 318.8498, "EPHEMERIS_TYPE": 0, "CLASSIFICATION_TYPE": "U", "NORAD_CAT_ID": 33320, "ELEMENT_SET_NO": 999, "REV_AT_EPOCH": 93043, "BSTAR": 0.00025642, "MEAN_MOTION_DOT": 2.059e-05, "MEAN_MOTION_DDOT": 0}, "tle": {"line1": "1 33320U 08041A   25344.53759090  .00002059  00000+0  25642-3 0  9997", "line2": "2 33320  97.6544 332.9279 0020336  41.4254 318.8498 14.83382865930435"}}, "geometry": {"type": "Point", "coordinates": [96.63841207693633, -80.84167505531563]}}, {"type": "Feature", "properties": {"norad_id": 33321, "name": "HUANJING 1B (HJ-1B)", "group": "resource", "lat": 48.766413543957746, "lon": 165.6808166089487, "alt_km": 598.3976113352073, "timestamp": "2025-12-10T18:56:59.718559+00:00", "meta": {"OBJECT_NAME": "HUANJING 1B (HJ-1B)", "OBJECT_ID": "2008-041B", "EPOCH": "2025-12-10T11:53:18.038688", "MEAN_MOTION": 14.82812501, "ECCENTRICITY": 0.0038291, "INCLINATION": 97.6401, "RA_OF_ASC_NODE": 336.5901, "ARG_OF_PERICENTER": 82.6677, "MEAN_ANOMALY": 277.8887, "EPHEMERIS_TYPE": 0, "CLASSIFICATION_TYPE": "U", "NORAD_CAT_ID": 33321, "ELEMENT_SET_NO": 999, "REV_AT_EPOCH": 93044, "BSTAR": 0.00025179, "MEAN_MOTION_DOT": 2.011e-05, "MEAN_MOTION_DDOT": 0}, "tle": {"line1": "1 33321U 08041B   25344.49534767  .00002011  00000+0  25179-3 0  9998", "line2": "2 33321  97.6401 336.5901 0038291  82.6677 277.8887 14.82812501930446"}}, "geometry": {"type": "Point", "coordinates": [165.6808166089487, 48.766413543957746]}}, {"type": "Feature", "properties": {"norad_id": 33331, "name": "GEOEYE 1", "group": "resource", "lat": -61.54402110022183, "lon": -139.19011532964296, "alt_km": 683.4368011832548, "timestamp": "2025-12-10T18:56:59.718569+00:00", "meta": {"OBJECT_NAME": "GEOEYE 1", "OBJECT_ID": "2008-042A", "EPOCH": "2025-12-10T11:17:16.372896", "MEAN_MOTION": 14.648079, "ECCENTRICITY": 0.0002752, "INCLINATION": 98.1255, "RA_OF_ASC_NODE": 55.7794, "ARG_OF_PERICENTER": 286.6567, "MEAN_ANOMALY": 73.4334, "EPHEMERIS_TYPE": 0, "CLASSIFICATION_TYPE": "U", "NORAD_CAT_ID": 33331, "ELEMENT_SET_NO": 999, "REV_AT_EPOCH": 92252, "BSTAR": 0.00019945, "MEAN_MOTION_DOT": 1.016e-05, "MEAN_MOTION_DDOT": 0}, "tle": {"line1": "1 33331U 08042A   25344.47032839  .00001016  00000+0  19945-3 0  9999", "line2": "2 33331  98.1255  55.7794 0002752 286.6567  73.4334 14.64807900922521"}}, "geometry": {"type": "Point", "coordinates": [-139.19011532964296, -61.54402110022183]}}, {"type": "Feature", "properties": {"norad_id": 33396, "name": "THEOS", "group": "resource", "lat": 51.90222803231682, "lon": 31.82537091466479, "alt_km": 819.5587721910442, "timestamp": "2025-12-10T18:56:59.718579+00:00", "meta": {"OBJECT_NAME": "THEOS", "OBJECT_ID": "2008-049A", "EPOCH": "2025-12-10T11:56:18.731328", "MEAN_MOTION": 14.20097268, "ECCENTRICITY": 0.0001116, "INCLINATION": 98.5865, "RA_OF_ASC_NODE": 42.6528, "ARG_OF_PERICENTER": 94.8466, "MEAN_ANOMALY": 265.2839, "EPHEMERIS_TYPE": 0, "CLASSIFICATION_TYPE": "U", "NORAD_CAT_ID": 33396, "ELEMENT_SET_NO": 999, "REV_AT_EPOCH": 89118, "BSTAR": 0.00026792, "MEAN_MOTION_DOT": 5.28e-06, "MEAN_MOTION_DDOT": 0}, "tle": {"line1": "1 33396U 08049A   25344.49743902  .00000528  00000+0  26792-3 0  9994", "line2": "2 33396  98.5865  42.6528 0001116  94.8466 265.2839 14.20097268891181"}}, "geometry": {"type": "Point", "coordinates": [31.82537091466479, 51.90222803231682]}}, {"type": "Feature", "properties": {"norad_id": 33412, "name": "COSMO-SKYMED 3", "group": "resource", "lat": -79.36977362310462, "lon": -32.136311511594435, "alt_km": 556.3300557217817, "timestamp": "2025-12-10T18:56:59.718590+00:00", "meta": {"OBJECT_NAME": "COSMO-SKYMED 3", "OBJECT_ID": "2008-054A", "EPOCH": "2025-12-10T13:00:02.335680", "MEAN_MOTION": 15.05318104, "ECCENTRICITY": 0.0015923, "INCLINATION": 97.8463, "RA_OF_ASC_NODE": 194.8957, "ARG_OF_PERICENTER": 181.5539, "MEAN_ANOMALY": 178.564, "EPHEMERIS_TYPE": 0, "CLASSIFICATION_TYPE": "U", "NORAD_CAT_ID": 33412, "ELEMENT_SET_NO": 999, "REV_AT_EPOCH": 92854, "BSTAR": 0.00043602, "MEAN_MOTION_DOT": 6.194e-05, "MEAN_MOTION_DDOT": 0}, "tle": {"line1": "1 33412U 08054A   25344.54169370  .00006194  00000+0  43602-3 0  9990", "line2": "2 33412  97.8463 194.8957 0015923 181.5539 178.5640 15.05318104928544"}}, "geometry": {"type": "Point", "coordinates": [-32.136311511594435, -79.36977362310462]}}, {"type": "Feature", "properties": {"norad_id": 33446, "name": "YAOGAN-4", "group": "resource", "lat": 42.35716130082436, "lon": -92.3822433683019, "alt_km": 614.6076875281206, "timestamp": "2025-12-10T18:56:59.718600+00:00", "meta": {"OBJECT_NAME": "YAOGAN-4", "OBJECT_ID": "2008-061A", "EPOCH": "2025-12-10T09:02:22.074432", "MEAN_MOTION": 14.82671071, "ECCENTRICITY": 0.0013772, "INCLINATION": 97.918, "RA_OF_ASC_NODE": 274.4991, "ARG_OF_PERICENTER": 331.4072, "MEAN_ANOMALY": 28.6385, "EPHEMERIS_TYPE": 0, "CLASSIFICATION_TYPE": "U", "NORAD_CAT_ID": 33446, "ELEMENT_SET_NO": 999, "REV_AT_EPOCH": 91768, "BSTAR": 0.0003126, "MEAN_MOTION_DOT": 2.471e-05, "MEAN_MOTION_DDOT": 0}, "tle": {"line1": "1 33446U 08061A   25344.37664438  .00002471  00000+0  31260-3 0  9992", "line2": "2 33446  97.9180 274.4991 0013772 331.4072  28.6385 14.82671071917682"}}, "geometry": {"type": "Point", "coordinates": [-92.3822433683019, 42.35716130082436]}}]}